[{"OBJECT_NAME":"JILIN-1 05","OBJECT_ID":"2017-074B","EPOCH":"2026-03-09T21:56:30.612480","MEAN_MOTION":15.3245271,"ECCENTRICITY":0.00045948,"INCLINATION":97.4781,"RA_OF_ASC_NODE":173.8936,"ARG_OF_PERICENTER":206.4038,"MEAN_ANOMALY":153.6971,"EPHEMERIS_TYPE":0,"CLASSIFICATION_TYPE":"U","NORAD_CAT_ID":43023,"ELEMENT_SET_NO":999,"REV_AT_EPOCH":45879,"BSTAR":0.00026108793,"MEAN_MOTION_DOT":8.104e-5,"MEAN_MOTION_DDOT":0},{"OBJECT_NAME":"STARLINK-32711","OBJECT_ID":"2024-251D","EPOCH":"2026-03-09T22:16:24.437568","MEAN_MOTION":15.3021573,"ECCENTRICITY":0.00022104,"INCLINATION":53.1627,"RA_OF_ASC_NODE":334.2865,"ARG_OF_PERICENTER":41.1116,"MEAN_ANOMALY":319.0051,"EPHEMERIS_TYPE":0,"CLASSIFICATION_TYPE":"U","NORAD_CAT_ID":62435,"ELEMENT_SET_NO":999,"REV_AT_EPOCH":6798,"BSTAR":0.0010903295,"MEAN_MOTION_DOT":0.00032089,"MEAN_MOTION_DDOT":0}]
